1998-067XU              
1 66908U 98067XU  26028.89857812  .00123445  00000+0  15218-2 0  9992
2 66908  51.6282 266.9504 0002865 141.6198 218.4999 15.59282752  8958
SILVERSAT               
1 66909U 98067XV  26028.88178503  .00138212  00000+0  16306-2 0  9992
2 66909  51.6294 266.8401 0003152 156.3335 203.7804 15.60375041  8951
1998-067XW              
1 66910U 98067XW  26028.82492870  .00110960  00000+0  13635-2 0  9996
2 66910  51.6271 267.2058 0001620 137.9841 222.1276 15.59423345  8942
1998-067XX              
1 66911U 98067XX  26028.85962343  .00139619  00000+0  15814-2 0  9990
2 66911  51.6268 266.6870 0002437 171.6940 188.4095 15.61432474  8945
1998-067XY              
1 66912U 98067XY  26028.86956975  .00085657  00000+0  11539-2 0  9998
2 66912  51.6290 267.5085 0002503 116.2930 243.8319 15.57097036  8937
